[{"OBJECT_NAME":"OUTPOST MISSION 1","OBJECT_ID":"2023-084BK","EPOCH":"2026-03-09T23:19:35.444064","MEAN_MOTION":15.70083334,"ECCENTRICITY":0.00047289,"INCLINATION":97.5968,"RA_OF_ASC_NODE":222.1792,"ARG_OF_PERICENTER":254.2575,"MEAN_ANOMALY":105.8165,"EPHEMERIS_TYPE":0,"CLASSIFICATION_TYPE":"U","NORAD_CAT_ID":56226,"ELEMENT_SET_NO":999,"REV_AT_EPOCH":15332,"BSTAR":0.000839791,"MEAN_MOTION_DOT":0.00102103,"MEAN_MOTION_DDOT":0},{"OBJECT_NAME":"STARLINK-11301 [DTC]","OBJECT_ID":"2024-204M","EPOCH":"2026-03-09T23:34:25.521312","MEAN_MOTION":15.69710069,"ECCENTRICITY":0.0001063,"INCLINATION":53.1583,"RA_OF_ASC_NODE":354.5896,"ARG_OF_PERICENTER":54.5649,"MEAN_ANOMALY":305.5468,"EPHEMERIS_TYPE":0,"CLASSIFICATION_TYPE":"U","NORAD_CAT_ID":61885,"ELEMENT_SET_NO":999,"REV_AT_EPOCH":7696,"BSTAR":4.6209369e-5,"MEAN_MOTION_DOT":5.013e-5,"MEAN_MOTION_DDOT":0}]
